start=new Date('2021-10-20T00:00:00.000Z').valueOf();
sats=[{"REF_FRAME":"TEME","MEAN_MOTION_DDOT":"0.0000000000000","MEAN_ANOMALY":"283.9923","OBJECT_ID":"2020-006U","COUNTRY_CODE":"US","OBJECT_TYPE":"PAYLOAD","EPOCH":"2021-10-19T16:08:01.907520","PERIAPSIS":"546.212","CENTER_NAME":"EARTH","REV_AT_EPOCH":"9500","ARG_OF_PERICENTER":"76.1227","DECAY_DATE":null,"TLE_LINE2":"2 45062  53.0543 278.3524 0001455  76.1227 283.9923 15.06398140 95007","ELEMENT_SET_NO":"999","BSTAR":"0.00012985000000","ECCENTRICITY":"0.00014550","TLE_LINE1":"1 45062U 20006U   21292.67224430  .00001653  00000-0  12985-3 0  9992","INCLINATION":"53.0543","MEAN_MOTION":"15.06398140","FILE":"3172644","EPHEMERIS_TYPE":"0","LAUNCH_DATE":"2020-01-29","NORAD_CAT_ID":"45062","GP_ID":"187629154","RA_OF_ASC_NODE":"278.3524","CLASSIFICATION_TYPE":"U","SITE":"AFETR","MEAN_ELEMENT_THEORY":"SGP4","APOAPSIS":"548.227","TIME_SYSTEM":"UTC","OBJECT_NAME":"STARLINK-1171","PERIOD":"95.592","SEMIMAJOR_AXIS":"6925.354","MEAN_MOTION_DOT":"0.00001653","RCS_SIZE":"LARGE"},{"ARG_OF_PERICENTER":"3.4435","TLE_LINE2":"2 45063  53.0560 248.4711 0002020   3.4435 356.6604 15.91087863 95416","DECAY_DATE":null,"BSTAR":"0.00023160000000","ECCENTRICITY":"0.00020200","ELEMENT_SET_NO":"999","PERIAPSIS":"297.891","CENTER_NAME":"EARTH","REV_AT_EPOCH":"9541","OBJECT_ID":"2020-006V","COUNTRY_CODE":"US","OBJECT_TYPE":"PAYLOAD","EPOCH":"2021-10-19T14:23:28.271328","REF_FRAME":"TEME","MEAN_MOTION_DDOT":"0.0000130310000","MEAN_ANOMALY":"356.6604","TIME_SYSTEM":"UTC","OBJECT_NAME":"STARLINK-1178","PERIOD":"90.504","RCS_SIZE":"LARGE","MEAN_MOTION_DOT":"0.00071671","SEMIMAJOR_AXIS":"6677.374","SITE":"AFETR","RA_OF_ASC_NODE":"248.4711","CLASSIFICATION_TYPE":"U","MEAN_ELEMENT_THEORY":"SGP4","APOAPSIS":"300.588","LAUNCH_DATE":"2020-01-29","EPHEMERIS_TYPE":"0","NORAD_CAT_ID":"45063","GP_ID":"187628407","TLE_LINE1":"1 45063U 20006V   21292.59963277  .00071671  13031-4  23160-3 0  9999","FILE":"3172644","MEAN_MOTION":"15.91087863","INCLINATION":"53.0560"},{"RA_OF_ASC_NODE":"258.5915","CLASSIFICATION_TYPE":"U","SITE":"AFETR","MEAN_ELEMENT_THEORY":"SGP4","APOAPSIS":"548.198","TIME_SYSTEM":"UTC","OBJECT_NAME":"STARLINK-1133","PERIOD":"95.592","SEMIMAJOR_AXIS":"6925.329","RCS_SIZE":"LARGE","MEAN_MOTION_DOT":"0.00001993","TLE_LINE1":"1 45064U 20006W   21292.61881641  .00001993  00000-0  15263-3 0  9990","INCLINATION":"53.0535","MEAN_MOTION":"15.06406469","FILE":"3172644","EPHEMERIS_TYPE":"0","LAUNCH_DATE":"2020-01-29","NORAD_CAT_ID":"45064","GP_ID":"187628158","PERIAPSIS":"546.190","CENTER_NAME":"EARTH","REV_AT_EPOCH":"9527","ARG_OF_PERICENTER":"78.1990","DECAY_DATE":null,"TLE_LINE2":"2 45064  53.0535 258.5915 0001450  78.1990 281.9162 15.06406469 95274","ELEMENT_SET_NO":"999","BSTAR":"0.00015263000000","ECCENTRICITY":"0.00014500","REF_FRAME":"TEME","MEAN_MOTION_DDOT":"0.0000000000000","MEAN_ANOMALY":"281.9162","OBJECT_ID":"2020-006W","COUNTRY_CODE":"US","OBJECT_TYPE":"PAYLOAD","EPOCH":"2021-10-19T14:51:05.737824"},{"OBJECT_TYPE":"PAYLOAD","EPOCH":"2021-10-19T14:56:24.514080","OBJECT_ID":"2020-006X","COUNTRY_CODE":"US","MEAN_ANOMALY":"284.3873","MEAN_MOTION_DDOT":"0.0000000000000","REF_FRAME":"TEME","TLE_LINE2":"2 45065  53.0550 258.5901 0001508  75.7284 284.3873 15.06403967 95276","DECAY_DATE":null,"BSTAR":"0.00014879000000","ECCENTRICITY":"0.00015080","ELEMENT_SET_NO":"999","ARG_OF_PERICENTER":"75.7284","CENTER_NAME":"EARTH","REV_AT_EPOCH":"9527","PERIAPSIS":"546.157","GP_ID":"187629409","NORAD_CAT_ID":"45065","LAUNCH_DATE":"2020-01-29","EPHEMERIS_TYPE":"0","MEAN_MOTION":"15.06403967","FILE":"3172644","INCLINATION":"53.0550","TLE_LINE1":"1 45065U 20006X   21292.62250595  .00001936  00000-0  14879-3 0  9999","PERIOD":"95.592","MEAN_MOTION_DOT":"0.00001936","RCS_SIZE":"LARGE","SEMIMAJOR_AXIS":"6925.336","TIME_SYSTEM":"UTC","OBJECT_NAME":"STARLINK-1139","APOAPSIS":"548.246","SITE":"AFETR","CLASSIFICATION_TYPE":"U","RA_OF_ASC_NODE":"258.5901","MEAN_ELEMENT_THEORY":"SGP4"},{"PERIAPSIS":"546.140","CENTER_NAME":"EARTH","REV_AT_EPOCH":"9523","ARG_OF_PERICENTER":"72.2123","TLE_LINE2":"2 45066  53.0548 259.5951 0001539  72.2123 287.9034 15.06402592 95235","DECAY_DATE":null,"BSTAR":"0.00014954000000","ECCENTRICITY":"0.00015390","ELEMENT_SET_NO":"999","REF_FRAME":"TEME","MEAN_MOTION_DDOT":"0.0000000000000","MEAN_ANOMALY":"287.9034","OBJECT_ID":"2020-006Y","COUNTRY_CODE":"US","OBJECT_TYPE":"PAYLOAD","EPOCH":"2021-10-19T09:32:38.554080","SITE":"AFETR","CLASSIFICATION_TYPE":"U","RA_OF_ASC_NODE":"259.5951","MEAN_ELEMENT_THEORY":"SGP4","APOAPSIS":"548.271","TIME_SYSTEM":"UTC","OBJECT_NAME":"STARLINK-1145","PERIOD":"95.592","RCS_SIZE":"LARGE","MEAN_MOTION_DOT":"0.00001947","SEMIMAJOR_AXIS":"6925.341","TLE_LINE1":"1 45066U 20006Y   21292.39766845  .00001947  00000-0  14954-3 0  9990","FILE":"3171120","MEAN_MOTION":"15.06402592","INCLINATION":"53.0548","LAUNCH_DATE":"2020-01-29","EPHEMERIS_TYPE":"0","GP_ID":"187569614","NORAD_CAT_ID":"45066"},{"PERIAPSIS":"546.007","CENTER_NAME":"EARTH","REV_AT_EPOCH":"9527","ARG_OF_PERICENTER":"65.0821","DECAY_DATE":null,"TLE_LINE2":"2 45067  53.0536 258.6263 0001750  65.0821 295.0350 15.06398276 95277","ELEMENT_SET_NO":"999","ECCENTRICITY":"0.00017500","BSTAR":"0.00014348000000","REF_FRAME":"TEME","MEAN_ANOMALY":"295.0350","MEAN_MOTION_DDOT":"0.0000000000000","OBJECT_ID":"2020-006Z","COUNTRY_CODE":"US","OBJECT_TYPE":"PAYLOAD","EPOCH":"2021-10-19T14:40:27.627168","RA_OF_ASC_NODE":"258.6263","CLASSIFICATION_TYPE":"U","SITE":"AFETR","MEAN_ELEMENT_THEORY":"SGP4","APOAPSIS":"548.431","TIME_SYSTEM":"UTC","OBJECT_NAME":"STARLINK-1150","PERIOD":"95.592","SEMIMAJOR_AXIS":"6925.354","RCS_SIZE":"LARGE","MEAN_MOTION_DOT":"0.00001856","TLE_LINE1":"1 45067U 20006Z   21292.61143087  .00001856  00000-0  14348-3 0  9999","INCLINATION":"53.0536","FILE":"3172644","MEAN_MOTION":"15.06398276","EPHEMERIS_TYPE":"0","LAUNCH_DATE":"2020-01-29","GP_ID":"187627908","NORAD_CAT_ID":"45067"},{"INCLINATION":"53.0544","FILE":"3172644","MEAN_MOTION":"15.06403990","TLE_LINE1":"1 45068U 20006AA  21292.60037242  .00000810  00000-0  73248-4 0  9998","NORAD_CAT_ID":"45068","GP_ID":"187628658","EPHEMERIS_TYPE":"0","LAUNCH_DATE":"2020-01-29","APOAPSIS":"548.145","MEAN_ELEMENT_THEORY":"SGP4","RA_OF_ASC_NODE":"258.6896","CLASSIFICATION_TYPE":"U","SITE":"AFETR","SEMIMAJOR_AXIS":"6925.336","RCS_SIZE":"LARGE","MEAN_MOTION_DOT":"0.00000810","PERIOD":"95.592","OBJECT_NAME":"STARLINK-1161","TIME_SYSTEM":"UTC","MEAN_ANOMALY":"283.9013","MEAN_MOTION_DDOT":"0.0000000000000","REF_FRAME":"TEME","EPOCH":"2021-10-19T14:24:32.177088","OBJECT_TYPE":"PAYLOAD","COUNTRY_CODE":"US","OBJECT_ID":"2020-006AA","REV_AT_EPOCH":"9526","CENTER_NAME":"EARTH","PERIAPSIS":"546.257","ELEMENT_SET_NO":"999","ECCENTRICITY":"0.00013630","BSTAR":"0.00007324800000","DECAY_DATE":null,"TLE_LINE2":"2 45068  53.0544 258.6896 0001363  76.2127 283.9013 15.06403990 95263","ARG_OF_PERICENTER":"76.2127"},{"OBJECT_NAME":"STARLINK-1167","TIME_SYSTEM":"UTC","SEMIMAJOR_AXIS":"6925.309","RCS_SIZE":"LARGE","MEAN_MOTION_DOT":"0.00000050","PERIOD":"95.591","MEAN_ELEMENT_THEORY":"SGP4","CLASSIFICATION_TYPE":"U","RA_OF_ASC_NODE":"258.4845","SITE":"AFETR","APOAPSIS":"548.102","EPHEMERIS_TYPE":"0","LAUNCH_DATE":"2020-01-29","GP_ID":"187628910","NORAD_CAT_ID":"45071","TLE_LINE1":"1 45071U 20006AD  21292.64460466  .00000050  00000-0  22212-4 0  9995","INCLINATION":"53.0546","MEAN_MOTION":"15.06412934","FILE":"3172644","ARG_OF_PERICENTER":"79.6963","ELEMENT_SET_NO":"999","BSTAR":"0.00002221200000","ECCENTRICITY":"0.00013400","DECAY_DATE":null,"TLE_LINE2":"2 45071  53.0546 258.4845 0001340  79.6963 280.4176 15.06412934 95272","PERIAPSIS":"546.246","REV_AT_EPOCH":"9527","CENTER_NAME":"EARTH","COUNTRY_CODE":"US","OBJECT_ID":"2020-006AD","EPOCH":"2021-10-19T15:28:13.842624","OBJECT_TYPE":"PAYLOAD","REF_FRAME":"TEME","MEAN_ANOMALY":"280.4176","MEAN_MOTION_DDOT":"0.0000000000000"},{"EPHEMERIS_TYPE":"0","LAUNCH_DATE":"2020-01-29","GP_ID":"187629155","NORAD_CAT_ID":"45072","TLE_LINE1":"1 45072U 20006AE  21292.64828741  .00000085  00000-0  24606-4 0  9997","INCLINATION":"53.0527","MEAN_MOTION":"15.06400269","FILE":"3172644","TIME_SYSTEM":"UTC","OBJECT_NAME":"STARLINK-1168","PERIOD":"95.592","SEMIMAJOR_AXIS":"6925.348","MEAN_MOTION_DOT":"0.00000085","RCS_SIZE":"LARGE","RA_OF_ASC_NODE":"258.4709","CLASSIFICATION_TYPE":"U","SITE":"AFETR","MEAN_ELEMENT_THEORY":"SGP4","APOAPSIS":"548.277","OBJECT_ID":"2020-006AE","COUNTRY_CODE":"US","OBJECT_TYPE":"PAYLOAD","EPOCH":"2021-10-19T15:33:32.032224","REF_FRAME":"TEME","MEAN_MOTION_DDOT":"0.0000000000000","MEAN_ANOMALY":"290.1181","ARG_OF_PERICENTER":"69.9973","DECAY_DATE":null,"TLE_LINE2":"2 45072  53.0527 258.4709 0001537  69.9973 290.1181 15.06400269 95274","ELEMENT_SET_NO":"999","BSTAR":"0.00002460600000","ECCENTRICITY":"0.00015370","PERIAPSIS":"546.148","CENTER_NAME":"EARTH","REV_AT_EPOCH":"9527"},{"OBJECT_ID":"2020-006AF","COUNTRY_CODE":"US","OBJECT_TYPE":"PAYLOAD","EPOCH":"2021-10-19T14:35:09.282048","REF_FRAME":"TEME","MEAN_MOTION_DDOT":"0.0000000000000","MEAN_ANOMALY":"284.6577","ARG_OF_PERICENTER":"75.4596","DECAY_DATE":null,"TLE_LINE2":"2 45073  53.0538 258.6426 0001662  75.4596 284.6577 15.06393466 95263","ELEMENT_SET_NO":"999","BSTAR":"0.00006106200000","ECCENTRICITY":"0.00016620","PERIAPSIS":"546.083","CENTER_NAME":"EARTH","REV_AT_EPOCH":"9526","EPHEMERIS_TYPE":"0","LAUNCH_DATE":"2020-01-29","NORAD_CAT_ID":"45073","GP_ID":"187628408","TLE_LINE1":"1 45073U 20006AF  21292.60774632  .00000628  00000-0  61062-4 0  9993","INCLINATION":"53.0538","FILE":"3172644","MEAN_MOTION":"15.06393466","TIME_SYSTEM":"UTC","OBJECT_NAME":"STARLINK-1170","PERIOD":"95.593","SEMIMAJOR_AXIS":"6925.369","MEAN_MOTION_DOT":"0.00000628","RCS_SIZE":"LARGE","CLASSIFICATION_TYPE":"U","RA_OF_ASC_NODE":"258.6426","SITE":"AFETR","MEAN_ELEMENT_THEORY":"SGP4","APOAPSIS":"548.385"}];
